start=new Date('2021-10-29T00:00:00.000Z').valueOf();
sats=[{"GP_ID":"188366985","TLE_LINE1":"1 47372U 21005Z   21301.47240540 -.00000945  00000-0 -44581-4 0  9990","REF_FRAME":"TEME","OBJECT_TYPE":"PAYLOAD","CLASSIFICATION_TYPE":"U","FILE":"3189402","ARG_OF_PERICENTER":"77.5354","MEAN_ELEMENT_THEORY":"SGP4","SITE":"AFETR","EPHEMERIS_TYPE":"0","MEAN_MOTION_DOT":"-0.00000945","REV_AT_EPOCH":"4297","OBJECT_ID":"2021-005Z","TLE_LINE2":"2 47372  53.0563   8.8366 0001314  77.5354 282.5782 15.06394659 42972","RA_OF_ASC_NODE":"8.8366","MEAN_MOTION_DDOT":"0.0000000000000","ECCENTRICITY":"0.00013140","DECAY_DATE":null,"APOAPSIS":"548.140","INCLINATION":"53.0563","RCS_SIZE":"LARGE","PERIAPSIS":"546.320","CENTER_NAME":"EARTH","TIME_SYSTEM":"UTC","MEAN_MOTION":"15.06394659","NORAD_CAT_ID":"47372","OBJECT_NAME":"STARLINK-2089","COUNTRY_CODE":"US","ELEMENT_SET_NO":"999","MEAN_ANOMALY":"282.5782","LAUNCH_DATE":"2021-01-20","BSTAR":"-0.00004458100000","PERIOD":"95.592","EPOCH":"2021-10-28T11:20:15.826560","SEMIMAJOR_AXIS":"6925.365"},{"REV_AT_EPOCH":"4291","OBJECT_ID":"2021-005AA","TLE_LINE2":"2 47373  53.0557  13.7011 0001013  91.4749 268.6356 15.06402559 42912","RA_OF_ASC_NODE":"13.7011","MEAN_MOTION_DDOT":"0.0000000000000","ECCENTRICITY":"0.00010130","DECAY_DATE":null,"EPHEMERIS_TYPE":"0","MEAN_MOTION_DOT":"0.00000852","ARG_OF_PERICENTER":"91.4749","MEAN_ELEMENT_THEORY":"SGP4","SITE":"AFETR","TLE_LINE1":"1 47373U 21005AA  21301.50421373  .00000852  00000-0  76046-4 0  9996","GP_ID":"188367235","OBJECT_TYPE":"PAYLOAD","REF_FRAME":"TEME","CLASSIFICATION_TYPE":"U","FILE":"3189402","BSTAR":"0.00007604600000","EPOCH":"2021-10-28T12:06:04.066272","PERIOD":"95.592","SEMIMAJOR_AXIS":"6925.341","MEAN_ANOMALY":"268.6356","LAUNCH_DATE":"2021-01-20","NORAD_CAT_ID":"47373","OBJECT_NAME":"STARLINK-2092","COUNTRY_CODE":"US","ELEMENT_SET_NO":"999","APOAPSIS":"547.907","INCLINATION":"53.0557","RCS_SIZE":"LARGE","CENTER_NAME":"EARTH","PERIAPSIS":"546.504","TIME_SYSTEM":"UTC","MEAN_MOTION":"15.06402559"},{"RCS_SIZE":"LARGE","CENTER_NAME":"EARTH","PERIAPSIS":"546.362","APOAPSIS":"548.068","INCLINATION":"53.0544","MEAN_MOTION":"15.06399433","TIME_SYSTEM":"UTC","NORAD_CAT_ID":"47374","OBJECT_NAME":"STARLINK-2093","COUNTRY_CODE":"US","ELEMENT_SET_NO":"999","MEAN_ANOMALY":"272.7379","LAUNCH_DATE":"2021-01-20","BSTAR":"0.00009623000000","SEMIMAJOR_AXIS":"6925.350","PERIOD":"95.592","EPOCH":"2021-10-28T12:27:18.377280","GP_ID":"188367486","TLE_LINE1":"1 47374U 21005AB  21301.51896270  .00001152  00000-0  96230-4 0  9991","FILE":"3189402","REF_FRAME":"TEME","OBJECT_TYPE":"PAYLOAD","CLASSIFICATION_TYPE":"U","ARG_OF_PERICENTER":"87.3751","SITE":"AFETR","MEAN_ELEMENT_THEORY":"SGP4","EPHEMERIS_TYPE":"0","MEAN_MOTION_DOT":"0.00001152","OBJECT_ID":"2021-005AB","TLE_LINE2":"2 47374  53.0544  13.6524 0001232  87.3751 272.7379 15.06399433 42914","MEAN_MOTION_DDOT":"0.0000000000000","RA_OF_ASC_NODE":"13.6524","REV_AT_EPOCH":"4291","ECCENTRICITY":"0.00012320","DECAY_DATE":null},{"COUNTRY_CODE":"US","ELEMENT_SET_NO":"999","NORAD_CAT_ID":"47375","OBJECT_NAME":"STARLINK-2094","TIME_SYSTEM":"UTC","MEAN_MOTION":"15.06401770","APOAPSIS":"548.043","INCLINATION":"53.0571","RCS_SIZE":"LARGE","PERIAPSIS":"546.374","CENTER_NAME":"EARTH","EPOCH":"2021-10-28T11:07:40.744128","PERIOD":"95.592","SEMIMAJOR_AXIS":"6925.343","BSTAR":"0.00004638700000","LAUNCH_DATE":"2021-01-20","MEAN_ANOMALY":"277.8698","MEAN_ELEMENT_THEORY":"SGP4","SITE":"AFETR","ARG_OF_PERICENTER":"82.2428","REF_FRAME":"TEME","OBJECT_TYPE":"PAYLOAD","CLASSIFICATION_TYPE":"U","FILE":"3189245","GP_ID":"188342487","TLE_LINE1":"1 47375U 21005AC  21301.46366602  .00000410  00000-0  46387-4 0  9991","ECCENTRICITY":"0.00012050","DECAY_DATE":null,"REV_AT_EPOCH":"4386","OBJECT_ID":"2021-005AC","MEAN_MOTION_DDOT":"0.0000000000000","TLE_LINE2":"2 47375  53.0571  13.8966 0001205  82.2428 277.8698 15.06401770 43865","RA_OF_ASC_NODE":"13.8966","MEAN_MOTION_DOT":"0.00000410","EPHEMERIS_TYPE":"0"},{"GP_ID":"188366485","TLE_LINE1":"1 47376U 21005AD  21301.73274834 -.00000053  00000-0  15310-4 0  9993","CLASSIFICATION_TYPE":"U","OBJECT_TYPE":"PAYLOAD","REF_FRAME":"TEME","FILE":"3189402","ARG_OF_PERICENTER":"90.4881","MEAN_ELEMENT_THEORY":"SGP4","SITE":"AFETR","EPHEMERIS_TYPE":"0","MEAN_MOTION_DOT":"-0.00000053","REV_AT_EPOCH":"4294","TLE_LINE2":"2 47376  53.0567  12.6830 0001188  90.4881 269.6244 15.06393680 42946","MEAN_MOTION_DDOT":"0.0000000000000","RA_OF_ASC_NODE":"12.6830","OBJECT_ID":"2021-005AD","DECAY_DATE":null,"ECCENTRICITY":"0.00011880","INCLINATION":"53.0567","APOAPSIS":"548.056","PERIAPSIS":"546.410","CENTER_NAME":"EARTH","RCS_SIZE":"LARGE","TIME_SYSTEM":"UTC","MEAN_MOTION":"15.06393680","OBJECT_NAME":"STARLINK-2096","NORAD_CAT_ID":"47376","ELEMENT_SET_NO":"999","COUNTRY_CODE":"US","MEAN_ANOMALY":"269.6244","LAUNCH_DATE":"2021-01-20","BSTAR":"0.00001531000000","PERIOD":"95.593","EPOCH":"2021-10-28T17:35:09.456576","SEMIMAJOR_AXIS":"6925.368"},{"MEAN_ELEMENT_THEORY":"SGP4","SITE":"AFETR","ARG_OF_PERICENTER":"72.3926","REF_FRAME":"TEME","OBJECT_TYPE":"PAYLOAD","CLASSIFICATION_TYPE":"U","FILE":"3189402","TLE_LINE1":"1 47377U 21005AE  21301.52352317 -.00000665  00000-0 -25057-4 0  9993","GP_ID":"188366735","ECCENTRICITY":"0.00015250","DECAY_DATE":null,"REV_AT_EPOCH":"4291","OBJECT_ID":"2021-005AE","MEAN_MOTION_DDOT":"0.0000000000000","TLE_LINE2":"2 47377  53.0554  13.6110 0001525  72.3926 287.7229 15.07225561 42913","RA_OF_ASC_NODE":"13.6110","MEAN_MOTION_DOT":"-0.00000665","EPHEMERIS_TYPE":"0","COUNTRY_CODE":"US","ELEMENT_SET_NO":"999","NORAD_CAT_ID":"47377","OBJECT_NAME":"STARLINK-2097","TIME_SYSTEM":"UTC","MEAN_MOTION":"15.07225561","APOAPSIS":"545.740","INCLINATION":"53.0554","RCS_SIZE":"LARGE","PERIAPSIS":"543.629","CENTER_NAME":"EARTH","EPOCH":"2021-10-28T12:33:52.401888","PERIOD":"95.540","SEMIMAJOR_AXIS":"6922.819","BSTAR":"-0.00002505700000","LAUNCH_DATE":"2021-01-20","MEAN_ANOMALY":"287.7229"},{"LAUNCH_DATE":"2021-01-20","MEAN_ANOMALY":"284.4412","SEMIMAJOR_AXIS":"6925.355","PERIOD":"95.592","EPOCH":"2021-10-28T10:41:09.318336","BSTAR":"-0.00000871920000","MEAN_MOTION":"15.06397924","TIME_SYSTEM":"UTC","RCS_SIZE":"LARGE","PERIAPSIS":"546.207","CENTER_NAME":"EARTH","APOAPSIS":"548.233","INCLINATION":"53.0575","COUNTRY_CODE":"US","ELEMENT_SET_NO":"999","NORAD_CAT_ID":"47378","OBJECT_NAME":"STARLINK-2098","MEAN_MOTION_DOT":"-0.00000411","EPHEMERIS_TYPE":"0","ECCENTRICITY":"0.00014630","DECAY_DATE":null,"OBJECT_ID":"2021-005AF","RA_OF_ASC_NODE":"333.9676","TLE_LINE2":"2 47378  53.0575 333.9676 0001463  75.6739 284.4412 15.06397924 43462","MEAN_MOTION_DDOT":"0.0000000000000","REV_AT_EPOCH":"4346","FILE":"3189111","REF_FRAME":"TEME","OBJECT_TYPE":"PAYLOAD","CLASSIFICATION_TYPE":"U","TLE_LINE1":"1 47378U 21005AF  21301.44524674 -.00000411  00000-0 -87192-5 0  9990","GP_ID":"188338691","SITE":"AFETR","MEAN_ELEMENT_THEORY":"SGP4","ARG_OF_PERICENTER":"75.6739"},{"ARG_OF_PERICENTER":"83.4126","SITE":"AFETR","MEAN_ELEMENT_THEORY":"SGP4","TLE_LINE1":"1 47379U 21005AG  21301.45261377  .00000829  00000-0  74503-4 0  9992","GP_ID":"188368234","FILE":"3189402","REF_FRAME":"TEME","OBJECT_TYPE":"PAYLOAD","CLASSIFICATION_TYPE":"U","OBJECT_ID":"2021-005AG","RA_OF_ASC_NODE":"333.9321","TLE_LINE2":"2 47379  53.0557 333.9321 0001291  83.4126 276.7010 15.06402966 43467","MEAN_MOTION_DDOT":"0.0000000000000","REV_AT_EPOCH":"4346","ECCENTRICITY":"0.00012910","DECAY_DATE":null,"EPHEMERIS_TYPE":"0","MEAN_MOTION_DOT":"0.00000829","NORAD_CAT_ID":"47379","OBJECT_NAME":"STARLINK-2099","COUNTRY_CODE":"US","ELEMENT_SET_NO":"999","RCS_SIZE":"LARGE","PERIAPSIS":"546.310","CENTER_NAME":"EARTH","APOAPSIS":"548.099","INCLINATION":"53.0557","MEAN_MOTION":"15.06402966","TIME_SYSTEM":"UTC","BSTAR":"0.00007450300000","SEMIMAJOR_AXIS":"6925.339","EPOCH":"2021-10-28T10:51:45.829728","PERIOD":"95.592","MEAN_ANOMALY":"276.7010","LAUNCH_DATE":"2021-01-20"},{"RCS_SIZE":"LARGE","PERIAPSIS":"546.316","CENTER_NAME":"EARTH","APOAPSIS":"548.122","INCLINATION":"53.0554","MEAN_MOTION":"15.06398285","TIME_SYSTEM":"UTC","NORAD_CAT_ID":"47380","OBJECT_NAME":"STARLINK-2100","COUNTRY_CODE":"US","ELEMENT_SET_NO":"999","MEAN_ANOMALY":"273.6280","LAUNCH_DATE":"2021-01-20","BSTAR":"-0.00004799100000","SEMIMAJOR_AXIS":"6925.354","EPOCH":"2021-10-28T11:32:53.863872","PERIOD":"95.592","TLE_LINE1":"1 47380U 21005AH  21301.48117898 -.00000996  00000-0 -47991-4 0  9993","GP_ID":"188366986","FILE":"3189402","REF_FRAME":"TEME","OBJECT_TYPE":"PAYLOAD","CLASSIFICATION_TYPE":"U","ARG_OF_PERICENTER":"86.4858","SITE":"AFETR","MEAN_ELEMENT_THEORY":"SGP4","EPHEMERIS_TYPE":"0","MEAN_MOTION_DOT":"-0.00000996","OBJECT_ID":"2021-005AH","TLE_LINE2":"2 47380  53.0554 343.8194 0001304  86.4858 273.6280 15.06398285 43333","MEAN_MOTION_DDOT":"0.0000000000000","RA_OF_ASC_NODE":"343.8194","REV_AT_EPOCH":"4333","ECCENTRICITY":"0.00013040","DECAY_DATE":null},{"MEAN_ELEMENT_THEORY":"SGP4","SITE":"AFETR","ARG_OF_PERICENTER":"80.2841","CLASSIFICATION_TYPE":"U","OBJECT_TYPE":"PAYLOAD","REF_FRAME":"TEME","FILE":"3189402","TLE_LINE1":"1 47381U 21005AJ  21301.48899560 -.00001002  00000-0 -48397-4 0  9997","GP_ID":"188367236","DECAY_DATE":null,"ECCENTRICITY":"0.00013560","REV_AT_EPOCH":"4326","TLE_LINE2":"2 47381  53.0565 348.7830 0001356  80.2841 279.8301 15.06391509 43264","MEAN_MOTION_DDOT":"0.0000000000000","RA_OF_ASC_NODE":"348.7830","OBJECT_ID":"2021-005AJ","MEAN_MOTION_DOT":"-0.00001002","EPHEMERIS_TYPE":"0","ELEMENT_SET_NO":"999","COUNTRY_CODE":"US","OBJECT_NAME":"STARLINK-2101","NORAD_CAT_ID":"47381","TIME_SYSTEM":"UTC","MEAN_MOTION":"15.06391509","INCLINATION":"53.0565","APOAPSIS":"548.179","PERIAPSIS":"546.301","CENTER_NAME":"EARTH","RCS_SIZE":"LARGE","EPOCH":"2021-10-28T11:44:09.219840","PERIOD":"95.593","SEMIMAJOR_AXIS":"6925.375","BSTAR":"-0.00004839700000","LAUNCH_DATE":"2021-01-20","MEAN_ANOMALY":"279.8301"}];
